{"type": "FeatureCollection", "features": [ {"type": "Feature", "properties": {"norad_id": 43565, "name": "GSAT0222 (GALILEO 26)", "group": "gnss", "lat": 21.344167111452247, "lon": 1.2367318200439221, "alt_km": 23228.569342021317, "timestamp": "2025-12-18T15:47:11.465373+00:00", "meta": {"OBJECT_NAME": "GSAT0222 (GALILEO 26)", "OBJECT_ID": "2018-060B", "EPOCH": "2025-12-18T00:42:17.845344", "MEAN_MOTION": 1.70475645, "ECCENTRICITY": 0.00060883, "INCLINATION": 57.23, "RA_OF_ASC_NODE": 346.6777, "ARG_OF_PERICENTER": 265.4214, "MEAN_ANOMALY": 94.5238, "EPHEMERIS_TYPE": 0, "CLASSIFICATION_TYPE": "U", "NORAD_CAT_ID": 43565, "ELEMENT_SET_NO": 999, "REV_AT_EPOCH": 4612, "BSTAR": 0, "MEAN_MOTION_DOT": -7.6e-07, "MEAN_MOTION_DDOT": 0}, "tle": {"line1": "1 43565U 18060B   25352.02937321 -.00000076  00000+0  00000+0 0  9994", "line2": "2 43565  57.2300 346.6777 0006088 265.4214  94.5238  1.70475645 46121"}}, "geometry": {"type": "Point", "coordinates": [1.2367318200439221, 21.344167111452247]}}, {"type": "Feature", "properties": {"norad_id": 43566, "name": "GSAT0219 (GALILEO 23)", "group": "gnss", "lat": -52.12034944015283, "lon": -137.42710552612542, "alt_km": 23214.11437450369, "timestamp": "2025-12-18T15:47:11.465385+00:00", "meta": {"OBJECT_NAME": "GSAT0219 (GALILEO 23)", "OBJECT_ID": "2018-060C", "EPOCH": "2025-12-15T21:42:00.874656", "MEAN_MOTION": 1.70475845, "ECCENTRICITY": 0.00058258, "INCLINATION": 57.2298, "RA_OF_ASC_NODE": 346.7365, "ARG_OF_PERICENTER": 287.9846, "MEAN_ANOMALY": 71.9699, "EPHEMERIS_TYPE": 0, "CLASSIFICATION_TYPE": "U", "NORAD_CAT_ID": 43566, "ELEMENT_SET_NO": 999, "REV_AT_EPOCH": 4606, "BSTAR": 0, "MEAN_MOTION_DOT": -8.2e-07, "MEAN_MOTION_DDOT": 0}, "tle": {"line1": "1 43566U 18060C   25349.90417679 -.00000082  00000+0  00000+0 0  9994", "line2": "2 43566  57.2298 346.7365 0005825 287.9846  71.9699  1.70475845 46065"}}, "geometry": {"type": "Point", "coordinates": [-137.42710552612542, -52.12034944015283]}}, {"type": "Feature", "properties": {"norad_id": 43567, "name": "GSAT0220 (GALILEO 24)", "group": "gnss", "lat": 50.00155333100143, "lon": 116.49351304352686, "alt_km": 23233.8963580439, "timestamp": "2025-12-18T15:47:11.465398+00:00", "meta": {"OBJECT_NAME": "GSAT0220 (GALILEO 24)", "OBJECT_ID": "2018-060D", "EPOCH": "2025-12-17T07:09:30.654144", "MEAN_MOTION": 1.70475982, "ECCENTRICITY": 0.00060597, "INCLINATION": 57.2291, "RA_OF_ASC_NODE": 346.699, "ARG_OF_PERICENTER": 286.0855, "MEAN_ANOMALY": 73.8638, "EPHEMERIS_TYPE": 0, "CLASSIFICATION_TYPE": "U", "NORAD_CAT_ID": 43567, "ELEMENT_SET_NO": 999, "REV_AT_EPOCH": 4607, "BSTAR": 0, "MEAN_MOTION_DOT": -7.8e-07, "MEAN_MOTION_DDOT": 0}, "tle": {"line1": "1 43567U 18060D   25351.29827146 -.00000078  00000+0  00000+0 0  9999", "line2": "2 43567  57.2291 346.6990 0006059 286.0855  73.8638  1.70475982 46079"}}, "geometry": {"type": "Point", "coordinates": [116.49351304352686, 50.00155333100143]}}, {"type": "Feature", "properties": {"norad_id": 43581, "name": "BEIDOU-3 M5 (C23)", "group": "gnss", "lat": -17.361144423942516, "lon": 175.34752348132218, "alt_km": 21525.207830264862, "timestamp": "2025-12-18T15:47:11.465410+00:00", "meta": {"OBJECT_NAME": "BEIDOU-3 M5 (C23)", "OBJECT_ID": "2018-062A", "EPOCH": "2025-12-17T01:53:59.361792", "MEAN_MOTION": 1.86228923, "ECCENTRICITY": 0.00020674, "INCLINATION": 54.0895, "RA_OF_ASC_NODE": 188.4955, "ARG_OF_PERICENTER": 356.8892, "MEAN_ANOMALY": 3.1782, "EPHEMERIS_TYPE": 0, "CLASSIFICATION_TYPE": "U", "NORAD_CAT_ID": 43581, "ELEMENT_SET_NO": 999, "REV_AT_EPOCH": 5024, "BSTAR": 0, "MEAN_MOTION_DOT": 1.14e-06, "MEAN_MOTION_DDOT": 0}, "tle": {"line1": "1 43581U 18062A   25351.07915928  .00000114  00000+0  00000+0 0  9999", "line2": "2 43581  54.0895 188.4955 0002067 356.8892   3.1782  1.86228923 50243"}}, "geometry": {"type": "Point", "coordinates": [175.34752348132218, -17.361144423942516]}}, {"type": "Feature", "properties": {"norad_id": 43582, "name": "BEIDOU-3 M6 (C24)", "group": "gnss", "lat": 49.66818764514237, "lon": -112.917835146245, "alt_km": 21502.023754341757, "timestamp": "2025-12-18T15:47:11.465421+00:00", "meta": {"OBJECT_NAME": "BEIDOU-3 M6 (C24)", "OBJECT_ID": "2018-062B", "EPOCH": "2025-12-18T00:23:12.259968", "MEAN_MOTION": 1.86229952, "ECCENTRICITY": 0.00078372, "INCLINATION": 54.0891, "RA_OF_ASC_NODE": 188.4528, "ARG_OF_PERICENTER": 47.7556, "MEAN_ANOMALY": 312.3777, "EPHEMERIS_TYPE": 0, "CLASSIFICATION_TYPE": "U", "NORAD_CAT_ID": 43582, "ELEMENT_SET_NO": 999, "REV_AT_EPOCH": 5026, "BSTAR": 0, "MEAN_MOTION_DOT": 1.1e-06, "MEAN_MOTION_DDOT": 0}, "tle": {"line1": "1 43582U 18062B   25352.01611412  .00000110  00000+0  00000+0 0  9992", "line2": "2 43582  54.0891 188.4528 0007837  47.7556 312.3777  1.86229952 50263"}}, "geometry": {"type": "Point", "coordinates": [-112.917835146245, 49.66818764514237]}}, {"type": "Feature", "properties": {"norad_id": 43602, "name": "BEIDOU-3 M12 (C26)", "group": "gnss", "lat": 48.70301507277051, "lon": -48.17107903172789, "alt_km": 21514.13752138018, "timestamp": "2025-12-18T15:47:11.465432+00:00", "meta": {"OBJECT_NAME": "BEIDOU-3 M12 (C26)", "OBJECT_ID": "2018-067A", "EPOCH": "2025-12-17T22:53:45.555072", "MEAN_MOTION": 1.86227791, "ECCENTRICITY": 0.00092249, "INCLINATION": 54.1833, "RA_OF_ASC_NODE": 187.186, "ARG_OF_PERICENTER": 41.0055, "MEAN_ANOMALY": 319.1284, "EPHEMERIS_TYPE": 0, "CLASSIFICATION_TYPE": "U", "NORAD_CAT_ID": 43602, "ELEMENT_SET_NO": 999, "REV_AT_EPOCH": 4974, "BSTAR": 0, "MEAN_MOTION_DOT": 1.1e-06, "MEAN_MOTION_DDOT": 0}, "tle": {"line1": "1 43602U 18067A   25351.95399948  .00000110  00000+0  00000+0 0  9999", "line2": "2 43602  54.1833 187.1860 0009224  41.0055 319.1284  1.86227791 49749"}}, "geometry": {"type": "Point", "coordinates": [-48.17107903172789, 48.70301507277051]}}, {"type": "Feature", "properties": {"norad_id": 43603, "name": "BEIDOU-3 M11 (C25)", "group": "gnss", "lat": 17.418680010986442, "lon": -159.7643144898038, "alt_km": 21511.278948235653, "timestamp": "2025-12-18T15:47:11.465443+00:00", "meta": {"OBJECT_NAME": "BEIDOU-3 M11 (C25)", "OBJECT_ID": "2018-067B", "EPOCH": "2025-12-17T00:21:01.872864", "MEAN_MOTION": 1.86227285, "ECCENTRICITY": 0.00055921, "INCLINATION": 54.1804, "RA_OF_ASC_NODE": 187.182, "ARG_OF_PERICENTER": 36.5835, "MEAN_ANOMALY": 323.5212, "EPHEMERIS_TYPE": 0, "CLASSIFICATION_TYPE": "U", "NORAD_CAT_ID": 43603, "ELEMENT_SET_NO": 999, "REV_AT_EPOCH": 4975, "BSTAR": 0, "MEAN_MOTION_DOT": 1.14e-06, "MEAN_MOTION_DDOT": 0}, "tle": {"line1": "1 43603U 18067B   25351.01460501  .00000114  00000+0  00000+0 0  9995", "line2": "2 43603  54.1804 187.1820 0005592  36.5835 323.5212  1.86227285 49752"}}, "geometry": {"type": "Point", "coordinates": [-159.7643144898038, 17.418680010986442]}}, {"type": "Feature", "properties": {"norad_id": 43622, "name": "BEIDOU-3 M13 (C32)", "group": "gnss", "lat": 40.29129803332315, "lon": 102.78975276742004, "alt_km": 21529.368911403813, "timestamp": "2025-12-18T15:47:11.465454+00:00", "meta": {"OBJECT_NAME": "BEIDOU-3 M13 (C32)", "OBJECT_ID": "2018-072A", "EPOCH": "2025-12-18T01:04:45.751872", "MEAN_MOTION": 1.86231057, "ECCENTRICITY": 0.00059817, "INCLINATION": 56.4642, "RA_OF_ASC_NODE": 68.6443, "ARG_OF_PERICENTER": 299.083, "MEAN_ANOMALY": 60.8858, "EPHEMERIS_TYPE": 0, "CLASSIFICATION_TYPE": "U", "NORAD_CAT_ID": 43622, "ELEMENT_SET_NO": 999, "REV_AT_EPOCH": 4928, "BSTAR": 0, "MEAN_MOTION_DOT": -6.7e-07, "MEAN_MOTION_DDOT": 0}, "tle": {"line1": "1 43622U 18072A   25352.04497398 -.00000067  00000+0  00000+0 0  9998", "line2": "2 43622  56.4642  68.6443 0005981 299.0830  60.8858  1.86231057 49282"}}, "geometry": {"type": "Point", "coordinates": [102.78975276742004, 40.29129803332315]}}, {"type": "Feature", "properties": {"norad_id": 43623, "name": "BEIDOU-3 M14 (C33)", "group": "gnss", "lat": 31.591130097598878, "lon": -135.3966001705044, "alt_km": 21533.3162529005, "timestamp": "2025-12-18T15:47:11.465469+00:00", "meta": {"OBJECT_NAME": "BEIDOU-3 M14 (C33)", "OBJECT_ID": "2018-072B", "EPOCH": "2025-12-17T08:57:48.957984", "MEAN_MOTION": 1.86231002, "ECCENTRICITY": 0.00033285, "INCLINATION": 56.4654, "RA_OF_ASC_NODE": 68.6605, "ARG_OF_PERICENTER": 332.8139, "MEAN_ANOMALY": 27.1942, "EPHEMERIS_TYPE": 0, "CLASSIFICATION_TYPE": "U", "NORAD_CAT_ID": 43623, "ELEMENT_SET_NO": 999, "REV_AT_EPOCH": 4926, "BSTAR": 0, "MEAN_MOTION_DOT": -7.3e-07, "MEAN_MOTION_DDOT": 0}, "tle": {"line1": "1 43623U 18072B   25351.37348331 -.00000073  00000+0  00000+0 0  9993", "line2": "2 43623  56.4654  68.6605 0003328 332.8139  27.1942  1.86231002 49265"}}, "geometry": {"type": "Point", "coordinates": [-135.3966001705044, 31.591130097598878]}}, {"type": "Feature", "properties": {"norad_id": 43647, "name": "BEIDOU-3 M16 (C35)", "group": "gnss", "lat": 28.00612434614753, "lon": -31.209799274554697, "alt_km": 21504.845601289886, "timestamp": "2025-12-18T15:47:11.465481+00:00", "meta": {"OBJECT_NAME": "BEIDOU-3 M16 (C35)", "OBJECT_ID": "2018-078A", "EPOCH": "2025-12-18T01:38:11.471712", "MEAN_MOTION": 1.86232421, "ECCENTRICITY": 0.00073225, "INCLINATION": 54.2571, "RA_OF_ASC_NODE": 306.335, "ARG_OF_PERICENTER": 19.7633, "MEAN_ANOMALY": 340.2526, "EPHEMERIS_TYPE": 0, "CLASSIFICATION_TYPE": "U", "NORAD_CAT_ID": 43647, "ELEMENT_SET_NO": 999, "REV_AT_EPOCH": 4878, "BSTAR": 0, "MEAN_MOTION_DOT": -8.5e-07, "MEAN_MOTION_DDOT": 0}, "tle": {"line1": "1 43647U 18078A   25352.06818833 -.00000085  00000+0  00000+0 0  9994", "line2": "2 43647  54.2571 306.3350 0007322  19.7633 340.2526  1.86232421 48781"}}, "geometry": {"type": "Point", "coordinates": [-31.209799274554697, 28.00612434614753]}}]}